{
  "type": "FeatureCollection",
  "features": [
    {
      "type": "Feature",
      "properties": {
        "norad_id": 34316,
        "name": "COSMOS 2251 DEB",
        "group": "cosmos-2251-debris",
        "lat": 42.343136619714244,
        "lon": 114.50643471619516,
        "alt_km": 588.702597325806,
        "timestamp": "2025-12-26T08:37:54.973635+00:00",
        "meta_object_name": "COSMOS 2251 DEB",
        "meta_object_id": "1993-036NN",
        "meta_epoch": "2025-12-25T14:19:44.175648",
        "meta_mean_motion": 14.92240854,
        "meta_eccentricity": 0.000919,
        "meta_inclination": 74.0656,
        "meta_ra_of_asc_node": 311.1258,
        "meta_arg_of_pericenter": 32.3565,
        "meta_mean_anomaly": 327.818,
        "meta_ephemeris_type": 0,
        "meta_classification_type": "U",
        "meta_norad_cat_id": 34316,
        "meta_element_set_no": 999,
        "meta_rev_at_epoch": 89401,
        "meta_bstar": 0.0019689,
        "meta_mean_motion_dot": 0.00020121,
        "meta_mean_motion_ddot": 0,
        "tle_line1": "1 34316U 93036NN  25359.59703907  .00020121  00000+0  19689-2 0  9992",
        "tle_line2": "2 34316  74.0656 311.1258 0009190  32.3565 327.8180 14.92240854894011"
      },
      "geometry": {
        "type": "Point",
        "coordinates": [
          114.50643471619516,
          42.343136619714244
        ]
      }
    },
    {
      "type": "Feature",
      "properties": {
        "norad_id": 34317,
        "name": "COSMOS 2251 DEB",
        "group": "cosmos-2251-debris",
        "lat": 31.65213984049811,
        "lon": -176.9037709580453,
        "alt_km": 1220.9155898491135,
        "timestamp": "2025-12-26T08:37:54.973646+00:00",
        "meta_object_name": "COSMOS 2251 DEB",
        "meta_object_id": "1993-036NP",
        "meta_epoch": "2025-12-26T02:58:18.511104",
        "meta_mean_motion": 13.6513956,
        "meta_eccentricity": 0.0337012,
        "meta_inclination": 73.9242,
        "meta_ra_of_asc_node": 13.7235,
        "meta_arg_of_pericenter": 0.4101,
        "meta_mean_anomaly": 65.6445,
        "meta_ephemeris_type": 0,
        "meta_classification_type": "U",
        "meta_norad_cat_id": 34317,
        "meta_element_set_no": 999,
        "meta_rev_at_epoch": 83802,
        "meta_bstar": 0.00066269,
        "meta_mean_motion_dot": 7.69e-06,
        "meta_mean_motion_ddot": 0,
        "tle_line1": "1 34317U 93036NP  25360.12382536  .00000769  00000+0  66269-3 0  9998",
        "tle_line2": "2 34317  73.9242  13.7235 0337012   0.4101  65.6445 13.65139560838020"
      },
      "geometry": {
        "type": "Point",
        "coordinates": [
          -176.9037709580453,
          31.65213984049811
        ]
      }
    },
    {
      "type": "Feature",
      "properties": {
        "norad_id": 34321,
        "name": "COSMOS 2251 DEB",
        "group": "cosmos-2251-debris",
        "lat": 28.37177853388675,
        "lon": 139.66982721831877,
        "alt_km": 730.9951398530584,
        "timestamp": "2025-12-26T08:37:54.973656+00:00",
        "meta_object_name": "COSMOS 2251 DEB",
        "meta_object_id": "1993-036NT",
        "meta_epoch": "2025-12-25T19:49:55.565184",
        "meta_mean_motion": 14.50112007,
        "meta_eccentricity": 0.00160413,
        "meta_inclination": 74.0288,
        "meta_ra_of_asc_node": 131.774,
        "meta_arg_of_pericenter": 260.6384,
        "meta_mean_anomaly": 225.892,
        "meta_ephemeris_type": 0,
        "meta_classification_type": "U",
        "meta_norad_cat_id": 34321,
        "meta_element_set_no": 999,
        "meta_rev_at_epoch": 88676,
        "meta_bstar": 0.00065748716,
        "meta_mean_motion_dot": 2.529e-05,
        "meta_mean_motion_ddot": 0,
        "tle_line1": "1 34321U 93036NT  25359.82633756  .00002529  00000+0  65749-3 0  9999",
        "tle_line2": "2 34321  74.0288 131.7740 0016041 260.6384 225.8920 14.50112007886762"
      },
      "geometry": {
        "type": "Point",
        "coordinates": [
          139.66982721831877,
          28.37177853388675
        ]
      }
    },
    {
      "type": "Feature",
      "properties": {
        "norad_id": 34323,
        "name": "COSMOS 2251 DEB",
        "group": "cosmos-2251-debris",
        "lat": 11.264500315293665,
        "lon": -86.90887708170226,
        "alt_km": 612.298362787099,
        "timestamp": "2025-12-26T08:37:54.973666+00:00",
        "meta_object_name": "COSMOS 2251 DEB",
        "meta_object_id": "1993-036NV",
        "meta_epoch": "2025-12-25T17:46:30.349920",
        "meta_mean_motion": 14.7482066,
        "meta_eccentricity": 0.00571799,
        "meta_inclination": 73.9528,
        "meta_ra_of_asc_node": 97.5927,
        "meta_arg_of_pericenter": 138.3754,
        "meta_mean_anomaly": 344.1097,
        "meta_ephemeris_type": 0,
        "meta_classification_type": "U",
        "meta_norad_cat_id": 34323,
        "meta_element_set_no": 999,
        "meta_rev_at_epoch": 88631,
        "meta_bstar": 0.0022699911,
        "meta_mean_motion_dot": 0.00015618,
        "meta_mean_motion_ddot": 0,
        "tle_line1": "1 34323U 93036NV  25359.74062905  .00015618  00000+0  22700-2 0  9996",
        "tle_line2": "2 34323  73.9528  97.5927 0057179 138.3754 344.1097 14.74820660886312"
      },
      "geometry": {
        "type": "Point",
        "coordinates": [
          -86.90887708170226,
          11.264500315293665
        ]
      }
    },
    {
      "type": "Feature",
      "properties": {
        "norad_id": 34325,
        "name": "COSMOS 2251 DEB",
        "group": "cosmos-2251-debris",
        "lat": -7.8074113563606575,
        "lon": -8.91812983954235,
        "alt_km": 743.1188063181489,
        "timestamp": "2025-12-26T08:37:54.973676+00:00",
        "meta_object_name": "COSMOS 2251 DEB",
        "meta_object_id": "1993-036NX",
        "meta_epoch": "2025-12-25T20:22:01.149888",
        "meta_mean_motion": 14.04557216,
        "meta_eccentricity": 0.01913228,
        "meta_inclination": 73.8708,
        "meta_ra_of_asc_node": 169.7082,
        "meta_arg_of_pericenter": 184.6073,
        "meta_mean_anomaly": 300.2116,
        "meta_ephemeris_type": 0,
        "meta_classification_type": "U",
        "meta_norad_cat_id": 34325,
        "meta_element_set_no": 999,
        "meta_rev_at_epoch": 85699,
        "meta_bstar": 0.0020443656,
        "meta_mean_motion_dot": 3.821e-05,
        "meta_mean_motion_ddot": 0,
        "tle_line1": "1 34325U 93036NX  25359.84862442  .00003821  00000+0  20444-2 0  9999",
        "tle_line2": "2 34325  73.8708 169.7082 0191322 184.6073 300.2116 14.04557216856997"
      },
      "geometry": {
        "type": "Point",
        "coordinates": [
          -8.91812983954235,
          -7.8074113563606575
        ]
      }
    },
    {
      "type": "Feature",
      "properties": {
        "norad_id": 34327,
        "name": "COSMOS 2251 DEB",
        "group": "cosmos-2251-debris",
        "lat": -16.715672498501267,
        "lon": -30.463926380196114,
        "alt_km": 616.1918884109455,
        "timestamp": "2025-12-26T08:37:54.973686+00:00",
        "meta_object_name": "COSMOS 2251 DEB",
        "meta_object_id": "1993-036NZ",
        "meta_epoch": "2025-12-25T21:00:08.868960",
        "meta_mean_motion": 14.89478709,
        "meta_eccentricity": 0.00337459,
        "meta_inclination": 73.9942,
        "meta_ra_of_asc_node": 145.5616,
        "meta_arg_of_pericenter": 319.4868,
        "meta_mean_anomaly": 160.9451,
        "meta_ephemeris_type": 0,
        "meta_classification_type": "U",
        "meta_norad_cat_id": 34327,
        "meta_element_set_no": 999,
        "meta_rev_at_epoch": 89703,
        "meta_bstar": 0.0013743907,
        "meta_mean_motion_dot": 0.00013213,
        "meta_mean_motion_ddot": 0,
        "tle_line1": "1 34327U 93036NZ  25359.87510265  .00013213  00000+0  13744-2 0  9998",
        "tle_line2": "2 34327  73.9942 145.5616 0033745 319.4868 160.9451 14.89478709897034"
      },
      "geometry": {
        "type": "Point",
        "coordinates": [
          -30.463926380196114,
          -16.715672498501267
        ]
      }
    },
    {
      "type": "Feature",
      "properties": {
        "norad_id": 34340,
        "name": "COSMOS 2251 DEB",
        "group": "cosmos-2251-debris",
        "lat": 15.5814043165214,
        "lon": -70.19613586373652,
        "alt_km": 762.153520598019,
        "timestamp": "2025-12-26T08:37:54.973696+00:00",
        "meta_object_name": "COSMOS 2251 DEB",
        "meta_object_id": "1993-036PN",
        "meta_epoch": "2025-12-25T22:28:58.426176",
        "meta_mean_motion": 13.79628217,
        "meta_eccentricity": 0.0284375,
        "meta_inclination": 74.0791,
        "meta_ra_of_asc_node": 285.9448,
        "meta_arg_of_pericenter": 30.6766,
        "meta_mean_anomaly": 46.9152,
        "meta_ephemeris_type": 0,
        "meta_classification_type": "U",
        "meta_norad_cat_id": 34340,
        "meta_element_set_no": 999,
        "meta_rev_at_epoch": 84450,
        "meta_bstar": 0.001742,
        "meta_mean_motion_dot": 2.414e-05,
        "meta_mean_motion_ddot": 0,
        "tle_line1": "1 34340U 93036PN  25359.93678734  .00002414  00000+0  17420-2 0  9992",
        "tle_line2": "2 34340  74.0791 285.9448 0284375  30.6766  46.9152 13.79628217844505"
      },
      "geometry": {
        "type": "Point",
        "coordinates": [
          -70.19613586373652,
          15.5814043165214
        ]
      }
    }
  ]
}